NORAD_CAT_ID,OBJECT_NAME,OBJECT_TYPE,EPOCH,MEAN_MOTION,ECCENTRICITY,INCLINATION,RA_OF_ASC_NODE,ARG_OF_PERICENTER,MEAN_ANOMALY,BSTAR,MEAN_MOTION_DOT,MEAN_MOTION_DDOT,TLE_LINE0,TLE_LINE1,TLE_LINE2,SEMIMAJOR_AXIS,PERIOD,APOGEE,PERIGEE,DECAYED
50832.0,STARLINK-3328,PAYLOAD,2022-05-30 06:00:00,15.08780987,0.000238,53.2177,251.6596,26.3658,261.2603,0.0051939,0.00083217,0.0,0 STARLINK-3328,1 50832U 22001AF  22150.25001157  .00083217  00000-0  51939-2 0  9994,2 50832  53.2177 251.6596 0002380  26.3658 261.2603 15.08780987 23279,6918.061,95.441,541.572,538.279,0.0
50832.0,STARLINK-3328,PAYLOAD,2022-05-30 14:00:01,15.08826599,0.0002634,53.2175,250.1653,25.9562,273.2304,0.00028563,4.259e-05,0.0,0 STARLINK-3328,1 50832U 22001AF  22150.58334491  .00004259  00000-0  28563-3 0  9997,2 50832  53.2175 250.1653 0002634  25.9562 273.2304 15.08826599 23323,6917.920999999999,95.438,541.609,537.964,0.0
50832.0,STARLINK-3328,PAYLOAD,2022-05-30 22:00:00,15.08853179,0.0002604,53.2172,248.6683,24.8627,285.9003,-0.0019149,-0.00030648,0.0,0 STARLINK-3328,1 50832U 22001AF  22150.91667824 -.00030648  00000-0 -19149-2 0  9995,2 50832  53.2172 248.6683 0002604  24.8627 285.9003 15.08853179  1306,6917.84,95.437,541.507,537.904,0.0
50832.0,STARLINK-3328,PAYLOAD,2022-05-31 06:00:02,15.08847085,0.0002451,53.2174,247.1709,27.693,294.7305,-0.00038559,-6.421e-05,0.0,0 STARLINK-3328,1 50832U 22001AF  22151.25002315 -.00006421  00000-0 -38559-3 0  9990,2 50832  53.2174 247.1709 0002451  27.6930 294.7305 15.08847085  1301,6917.859,95.437,541.419,538.028,0.0
50832.0,STARLINK-3328,PAYLOAD,2022-05-31 22:00:00,15.08849709,0.0002638,53.2172,244.1794,24.1205,321.4205,-0.0018195,-0.00029139,0.0,0 STARLINK-3328,1 50832U 22001AF  22151.91667824 -.00029139  00000-0 -18195-2 0  9999,2 50832  53.2172 244.1794 0002638  24.1205 321.4205 15.08849709 23524,6917.851,95.437,541.5409999999998,537.891,0.0
50832.0,STARLINK-3328,PAYLOAD,2022-06-01 14:00:01,15.0884346,0.0002794,53.2173,241.1878,25.8046,342.9346,0.00073407,0.00011415,0.0,0 STARLINK-3328,1 50832U 22001AF  22152.58334491  .00011415  00000-0  73407-3 0  9998,2 50832  53.2173 241.1878 0002794  25.8046 342.9346 15.08843460 23622,6917.87,95.437,541.668,537.802,0.0
50832.0,STARLINK-3328,PAYLOAD,2022-06-01 20:00:01,15.08877595,0.0002743,53.2171,240.0651,23.7457,263.6877,-0.0040001,-0.0006346,0.0,0 STARLINK-3328,1 50832U 22001AF  22152.83334491 -.00063460  00000-0 -40001-2 0  9998,2 50832  53.2171 240.0651 0002743  23.7457 263.6877 15.08877595  1309,6917.765,95.435,541.528,537.7330000000002,0.0
50832.0,STARLINK-3328,PAYLOAD,2022-06-02 20:10:03,15.08840415,0.0002628,53.2191,235.5434,28.9482,331.1655,-3.9624e-05,-9.19e-06,0.0,0 STARLINK-3328,1 50832U 22001AF  22153.84031575 -.00000919  00000-0 -39624-4 0  9998,2 50832  53.2191 235.5434 0002628  28.9482 331.1655 15.08840415 23812,6917.879,95.438,541.562,537.9259999999998,0.0
50832.0,STARLINK-3328,PAYLOAD,2022-06-03 10:28:31,15.08845498,0.0002648999999999,53.2192,232.8668,30.0686,330.0458,1.562e-05,-4e-07,0.0,0 STARLINK-3328,1 50832U 22001AF  22154.43647052 -.00000040  00000-0  15620-4 0  9991,2 50832  53.2192 232.8668 0002649  30.0686 330.0458 15.08845498 22651,6917.864000000001,95.437,541.561,537.896,0.0
50832.0,STARLINK-3328,PAYLOAD,2022-06-03 15:14:40,15.08845257,0.000267,53.2191,231.9748,30.2491,329.8655,1.3318e-05,-7.7e-07,0.0,0 STARLINK-3328,1 50832U 22001AF  22154.63519003 -.00000077  00000-0  13318-4 0  9999,2 50832  53.2191 231.9748 0002670  30.2491 329.8655 15.08845257 23939,6917.864000000001,95.437,541.576,537.882,0.0
50832.0,STARLINK-3328,PAYLOAD,2022-06-04 11:54:41,15.08835791,0.000274,53.2188,228.1102,29.0342,331.0802,-1.6859000000000002e-05,-5.57e-06,0.0,0 STARLINK-3328,1 50832U 22001AF  22155.49631438 -.00000557  00000-0 -16859-4 0  9998,2 50832  53.2188 228.1102 0002740  29.0342 331.0802 15.08835791 24062,6917.893,95.438,541.654,537.863,0.0
50832.0,STARLINK-3328,PAYLOAD,2022-06-05 22:00:00,15.08832303,0.0002628999999999,53.2165,221.7342,25.32,134.2113,-0.0011172,-0.00018022,0.0,0 STARLINK-3328,1 50832U 22001AF  22156.91667824 -.00018022  00000-0 -11172-2 0  9991,2 50832  53.2165 221.7342 0002629  25.3200 134.2113 15.08832303 24277,6917.904,95.438,541.5880000000002,537.95,0.0
50832.0,STARLINK-3328,PAYLOAD,2022-06-06 14:00:01,15.0880864,0.0002859,53.2165,218.7428,25.5425,157.1564,0.0025498,0.00040492,0.0,0 STARLINK-3328,1 50832U 22001AF  22157.58334491  .00040492  00000-0  25498-2 0  9996,2 50832  53.2165 218.7428 0002859  25.5425 157.1564 15.08808640 24376,6917.976,95.44,541.819,537.863,0.0
50832.0,STARLINK-3328,PAYLOAD,2022-06-06 21:08:34,15.08833474,0.0002925,53.2188,217.4057,31.7024,328.4144,-3.2142e-06,-3.4e-06,0.0,0 STARLINK-3328,1 50832U 22001AF  22157.88095675 -.00000340  00000-0 -32142-5 0  9994,2 50832  53.2188 217.4057 0002925  31.7024 328.4144 15.08833474 23170,6917.9,95.438,541.789,537.742,0.0
50832.0,STARLINK-3328,PAYLOAD,2022-06-07 03:30:06,15.08838164,0.0002886,53.2184,216.2161,31.074,329.0422,1.4882e-05,-5.2e-07,0.0,0 STARLINK-3328,1 50832U 22001AF  22158.14591331 -.00000052  00000-0  14882-4 0  9993,2 50832  53.2184 216.2161 0002886  31.0740 329.0422 15.08838164 24463,6917.886,95.438,541.748,537.754,0.0
50832.0,STARLINK-3328,PAYLOAD,2022-06-07 11:27:02,15.08841709,0.0002848,53.2182,214.73,29.9993,330.1162,-1.6805999999999998e-05,-5.56e-06,0.0,0 STARLINK-3328,1 50832U 22001AF  22158.47711235 -.00000556  00000-0 -16806-4 0  9994,2 50832  53.2182 214.7300 0002848  29.9993 330.1162 15.08841709 23263,6917.875,95.437,541.71,537.77,0.0
50832.0,STARLINK-3328,PAYLOAD,2022-06-08 11:17:48,15.08844143,0.000289,53.218,210.2692,30.9788,329.1374,0.00010742,1.422e-05,0.0,0 STARLINK-3328,1 50832U 22001AF  22159.47070451  .00001422  00000-0  10742-3 0  9996,2 50832  53.2180 210.2692 0002890  30.9788 329.1374 15.08844143 24660,6917.868,95.437,541.732,537.7330000000002,0.0
50832.0,STARLINK-3328,PAYLOAD,2022-06-08 20:50:08,15.08840095,0.0002901999999999,53.2179,208.4845,31.4977,328.6189,5.0129e-05,5.09e-06,0.0,0 STARLINK-3328,1 50832U 22001AF  22159.86814827  .00000509  00000-0  50129-4 0  9991,2 50832  53.2179 208.4845 0002902  31.4977 328.6189 15.08840095 23475,6917.88,95.438,541.753,537.738,0.0
50832.0,STARLINK-3328,PAYLOAD,2022-06-09 01:36:17,15.08840862,0.0002923,53.2178,207.5927,32.1153,328.0017,3.1246e-05,2.09e-06,0.0,0 STARLINK-3328,1 50832U 22001AF  22160.06686838  .00000209  00000-0  31246-4 0  9990,2 50832  53.2178 207.5927 0002923  32.1153 328.0017 15.08840862 24750,6917.878000000002,95.438,541.765,537.721,0.0
50832.0,STARLINK-3328,PAYLOAD,2022-06-09 12:43:59,15.08837759,0.0002869,53.2181,205.5106,33.3646,326.7526,-1.6165e-05,-5.46e-06,0.0,0 STARLINK-3328,1 50832U 22001AF  22160.53055188 -.00000546  00000-0 -16165-4 0  9999,2 50832  53.2181 205.5106 0002869  33.3646 326.7526 15.08837759 23570,6917.887,95.438,541.737,537.7669999999998,0.0
50832.0,STARLINK-3328,PAYLOAD,2022-06-10 03:02:27,15.08845035,0.0002885,53.2181,202.8345,34.3003,325.8175,-1.0227e-05,-4.51e-06,0.0,0 STARLINK-3328,1 50832U 22001AF  22161.12670590 -.00000451  00000-0 -10227-4 0  9993,2 50832  53.2181 202.8345 0002885  34.3003 325.8175 15.08845035 24916,6917.865,95.437,541.726,537.734,0.0
50832.0,STARLINK-3328,PAYLOAD,2022-06-10 09:23:59,15.08845601,0.0002937,53.218,201.6454,33.3931,326.7246,-1.0465e-05,-4.55e-06,0.0,0 STARLINK-3328,1 50832U 22001AF  22161.39166479 -.00000455  00000-0 -10465-4 0  9996,2 50832  53.2180 201.6454 0002937  33.3931 326.7246 15.08845601 23704,6917.863,95.437,541.76,537.696,0.0
50832.0,STARLINK-3328,PAYLOAD,2022-06-11 02:53:15,15.08825731,0.0002966,53.2178,198.3749,33.1862,326.9315,-5.3515e-05,-1.14e-05,0.0,0 STARLINK-3328,1 50832U 22001AF  22162.12032040 -.00001140  00000-0 -53515-4 0  9999,2 50832  53.2178 198.3749 0002966  33.1862 326.9315 15.08825731 25065,6917.924,95.438,541.841,537.737,0.0
50832.0,STARLINK-3328,PAYLOAD,2022-06-11 18:47:07,15.08830803,0.0003011,53.2178,195.4014,33.2156,326.9025,-2.9272e-05,-7.54e-06,0.0,0 STARLINK-3328,1 50832U 22001AF  22162.78272075 -.00000754  00000-0 -29272-4 0  9998,2 50832  53.2178 195.4014 0003011  33.2156 326.9025 15.08830803 25162,6917.909000000002,95.438,541.856,537.691,0.0
50832.0,STARLINK-3328,PAYLOAD,2022-06-12 01:08:40,15.08824641,0.0003112,53.2185,194.2141,45.0675,315.0569,-9.3125e-05,-1.77e-05,0.0,0 STARLINK-3328,1 50832U 22001AF  22163.04769033 -.00001770  00000-0 -93125-4 0  9990,2 50832  53.2185 194.2141 0003112  45.0675 315.0569 15.08824641 25207,6917.927,95.439,541.945,537.639,0.0
50832.0,STARLINK-3328,PAYLOAD,2022-06-12 09:05:36,15.08826645,0.0002994,53.2171,192.725,30.725,329.3917,-7.559e-05,-1.491e-05,0.0,0 STARLINK-3328,1 50832U 22001AF  22163.37889183 -.00001491  00000-0 -75590-4 0  9991,2 50832  53.2171 192.7250 0002994  30.7250 329.3917 15.08826645 24001,6917.920999999999,95.438,541.857,537.715,0.0
50832.0,STARLINK-3328,PAYLOAD,2022-06-12 18:37:54,15.08831924,0.0003093,53.217,190.9422,35.2755,324.8441,-4.1457e-06,-3.55e-06,0.0,0 STARLINK-3328,1 50832U 22001AF  22163.77632977 -.00000355  00000-0 -41457-5 0  9996,2 50832  53.2170 190.9422 0003093  35.2755 324.8441 15.08831924 25315,6917.905,95.438,541.91,537.63,0.0
50832.0,STARLINK-3328,PAYLOAD,2022-06-13 10:31:46,15.08829474,0.0003062,53.2174,187.9685,36.5815,323.5386,6.445100000000001e-05,7.37e-06,0.0,0 STARLINK-3328,1 50832U 22001AF  22164.43873531  .00000737  00000-0  64451-4 0  9993,2 50832  53.2174 187.9685 0003062  36.5815 323.5386 15.08829474 24166,6917.913000000001,95.438,541.896,537.659,0.0
50832.0,STARLINK-3328,PAYLOAD,2022-06-13 18:28:42,15.08833858,0.0003125,53.2175,186.4818,36.739,323.3816,8.5323e-05,1.069e-05,0.0,0 STARLINK-3328,1 50832U 22001AF  22164.76993414  .00001069  00000-0  85323-4 0  9992,2 50832  53.2175 186.4818 0003125  36.7390 323.3816 15.08833858 24212,6917.899,95.438,541.9259999999998,537.602,0.0
